*******************************************************************************
Ephemeris / WWW_USER Tue Mar 27 19:55:12 2018 Pasadena, USA      / Horizons    
*******************************************************************************
Target body name: Mercury (199)                   {source: DE431mx}
Center body name: Solar System Barycenter (0)     {source: DE431mx}
Center-site name: BODY CENTER
*******************************************************************************
Start time      : A.D. 2000-Jan-01 00:00:00.0000 TDB
Stop  time      : A.D. 2010-Jan-01 00:00:00.0000 TDB
Step-size       : 7200 minutes
*******************************************************************************
Center geodetic : 0.00000000,0.00000000,0.0000000 {E-lon(deg),Lat(deg),Alt(km)}
Center cylindric: 0.00000000,0.00000000,0.0000000 {E-lon(deg),Dxy(km),Dz(km)}
Center radii    : (undefined)                                                  
Output units    : AU-D                                                         
Output type     : GEOMETRIC cartesian states
Output format   : 2 (position and velocity)
Reference frame : ICRF/J2000.0                                                 
Coordinate systm: Ecliptic and Mean Equinox of Reference Epoch                 
*******************************************************************************
JDTDB
   X     Y     Z
   VX    VY    VZ
*******************************************************************************
$$SOE
2453434.500000000 = A.D. 2005-Mar-05 00:00:00.0000 TDB 
   1.699160880901542E-01  2.628265891118463E-01  6.154250232907427E-03
  -2.940454825894283E-02  1.614260070038175E-02  4.016639410692546E-03
2453439.500000000 = A.D. 2005-Mar-10 00:00:00.0000 TDB 
   8.611903904048666E-03  3.078105522562983E-01  2.462912857197662E-02
  -3.377447478330693E-02  1.427029546967870E-03  3.215459274068954E-03
2453444.500000000 = A.D. 2005-Mar-15 00:00:00.0000 TDB 
  -1.541175803015248E-01  2.778883234830010E-01  3.711521522155099E-02
  -3.009951720522676E-02 -1.285849552362258E-02  1.711121767850101E-03
2453449.500000000 = A.D. 2005-Mar-20 00:00:00.0000 TDB 
  -2.834509451269042E-01  1.873621647706314E-01  4.158534333905305E-02
  -2.109261186312638E-02 -2.240492597730478E-02  1.046312501800540E-04
2453454.500000000 = A.D. 2005-Mar-25 00:00:00.0000 TDB 
  -3.626372024360541E-01  6.300329753755551E-02  3.868936588537082E-02
  -1.057810207899598E-02 -2.651560726250038E-02 -1.196132622162605E-03
2453459.500000000 = A.D. 2005-Mar-30 00:00:00.0000 TDB 
  -3.906339882045580E-01 -7.086649481934432E-02  3.031862816604978E-02
  -8.552450216888901E-04 -2.646916640477000E-02 -2.084623017592689E-03
2453464.500000000 = A.D. 2005-Apr-04 00:00:00.0000 TDB 
  -3.739620026751971E-01 -1.971791355801044E-01  1.846594718370985E-02
   7.225902570578072E-03 -2.370146797065544E-02 -2.600133829061993E-03
2453469.500000000 = A.D. 2005-Apr-09 00:00:00.0000 TDB 
  -3.213737176408864E-01 -3.050747531986300E-01  4.821765838575711E-03
   1.351426210558944E-02 -1.923675375147588E-02 -2.812477005150253E-03
2453474.500000000 = A.D. 2005-Apr-14 00:00:00.0000 TDB 
  -2.416829854490396E-01 -3.877926224079318E-01 -9.252724717520261E-03
   1.808468738933514E-02 -1.371132880246910E-02 -2.780505752376432E-03
2453479.500000000 = A.D. 2005-Apr-19 00:00:00.0000 TDB 
  -1.432276493713401E-01 -4.410670960072149E-01 -2.264385634290913E-02
   2.103254534174892E-02 -7.508844909952365E-03 -2.544315083112105E-03
2453484.500000000 = A.D. 2005-Apr-24 00:00:00.0000 TDB 
  -3.399412576052811E-02 -4.621641318043482E-01 -3.439533905767915E-02
   2.239543078033849E-02 -8.744624747052738E-04 -2.127383991084849E-03
2453489.500000000 = A.D. 2005-Apr-29 00:00:00.0000 TDB 
   7.800500900745860E-02 -4.494107428742573E-01 -4.363516728222031E-02
   2.212177451813732E-02  5.999784290959267E-03 -1.540668557769154E-03
2453494.500000000 = A.D. 2005-May-04 00:00:00.0000 TDB 
   1.842402533681187E-01 -4.021198864024664E-01 -4.952444538501360E-02
   2.005426785398975E-02  1.289809967712859E-02 -7.873622514033725E-04
2453499.500000000 = A.D. 2005-May-09 00:00:00.0000 TDB 
   2.751150675566493E-01 -3.209338340045142E-01 -5.123495536243763E-02
   1.592409767730057E-02  1.948543527836768E-02  1.298317947636959E-04
2453504.500000000 = A.D. 2005-May-14 00:00:00.0000 TDB 
   3.394599363869653E-01 -2.087585689184240E-01 -4.797906366617794E-02
   9.382536869890379E-03  2.516093701817288E-02  1.193828755673463E-03
2453509.500000000 = A.D. 2005-May-19 00:00:00.0000 TDB 
   3.644441287868196E-01 -7.261314594596720E-02 -3.915271033821411E-02
   1.596733721723565E-04  2.883889208882902E-02  2.340699347788113E-03
2453514.500000000 = A.D. 2005-May-24 00:00:00.0000 TDB 
   3.369993595921822E-01  7.338610582169126E-02 -2.470986083051625E-02
  -1.144593596169192E-02  2.875257703008732E-02  3.398708563215593E-03
2453519.500000000 = A.D. 2005-May-29 00:00:00.0000 TDB 
   2.489728345189945E-01  2.050756813096882E-01 -5.876406487266558E-03
  -2.357182243774596E-02  2.281014746840507E-02  4.026037522575574E-03
2453524.500000000 = A.D. 2005-Jun-03 00:00:00.0000 TDB 
   1.071798146292972E-01  2.906127256194206E-01  1.412074101599430E-02
  -3.214620498656963E-02  1.049646204457382E-02  3.806927316948355E-03
2453529.500000000 = A.D. 2005-Jun-08 00:00:00.0000 TDB 
  -5.963888971774449E-02  3.050104566414568E-01  3.060264964949514E-02
  -3.317807249487749E-02 -4.747894873817474E-03  2.656202041563356E-03
2453534.500000000 = A.D. 2005-Jun-13 00:00:00.0000 TDB 
  -2.121136038672351E-01  2.476116737351255E-01  3.990261253917211E-02
  -2.684916057256408E-02 -1.742098415721974E-02  1.040031420005291E-03
2453539.500000000 = A.D. 2005-Jun-18 00:00:00.0000 TDB 
  -3.220324435164588E-01  1.400284317595951E-01  4.119722173028420E-02
  -1.683356132302114E-02 -2.467603017580157E-02 -4.718339482183100E-04
2453544.500000000 = A.D. 2005-Jun-23 00:00:00.0000 TDB 
  -3.799644187037140E-01  9.269765556672907E-03  3.582754174801994E-02
  -6.462765468039458E-03 -2.690976511755388E-02 -1.606069113057150E-03
2453549.500000000 = A.D. 2005-Jun-28 00:00:00.0000 TDB 
  -3.888328722754784E-01 -1.231899944560740E-01  2.581624611853084E-02
   2.641464782541742E-03 -2.560522500499273E-02 -2.335002157239162E-03
2453554.500000000 = A.D. 2005-Jul-03 00:00:00.0000 TDB 
  -3.564944451654092E-01 -2.430565585751328E-01  1.305215547915362E-02
   9.992907126909830E-03 -2.204960079621286E-02 -2.719171708348091E-03
2453559.500000000 = A.D. 2005-Jul-08 00:00:00.0000 TDB 
  -2.918653591397994E-01 -3.413723119313723E-01 -9.146619480188031E-04
   1.557060827486642E-02 -1.709463727897360E-02 -2.826240053610105E-03
2453564.500000000 = A.D. 2005-Jul-13 00:00:00.0000 TDB 
  -2.035792718516348E-01 -4.125444677023196E-01 -1.483496632116190E-02
   1.947277166423128E-02 -1.125801256811159E-02 -2.707512298154774E-03
2453569.500000000 = A.D. 2005-Jul-18 00:00:00.0000 TDB 
  -9.979670689365935E-02 -4.530144411920080E-01 -2.766912645314427E-02
   2.177694663983406E-02 -4.855305663639663E-03 -2.395887139387890E-03
2453574.500000000 = A.D. 2005-Jul-23 00:00:00.0000 TDB 
   1.153890463742163E-02 -4.605124752202222E-01 -3.850272749178200E-02
   2.248708951201573E-02  1.899178039773014E-03 -1.909235789262733E-03
2453579.500000000 = A.D. 2005-Jul-28 00:00:00.0000 TDB 
   1.222687123997859E-01 -4.337533480788948E-01 -4.648201917144586E-02
   2.151023350781704E-02  8.813416475175041E-03 -1.254714302513625E-03
2453584.500000000 = A.D. 2005-Aug-02 00:00:00.0000 TDB 
   2.234975175187607E-01 -3.725206726369477E-01 -5.077299719067983E-02
   1.864340053917014E-02  1.563680925658687E-02 -4.341687541548152E-04
2453589.500000000 = A.D. 2005-Aug-07 00:00:00.0000 TDB 
   3.050406771168317E-01 -2.782201591131941E-01 -5.055584636956865E-02
   1.357735117704183E-02  2.194804371843518E-02  5.463594693195580E-04
2453594.500000000 = A.D. 2005-Aug-12 00:00:00.0000 TDB 
   3.550152519199858E-01 -1.551408679961584E-01 -4.509046215176812E-02
   5.963495940560790E-03  2.697922263236016E-02  1.656124951643090E-03
2453599.500000000 = A.D. 2005-Aug-17 00:00:00.0000 TDB 
   3.601721314796157E-01 -1.277004053684734E-02 -3.393604579931361E-02
  -4.324374105753360E-03  2.937986177873113E-02  2.796378481724234E-03
2453604.500000000 = A.D. 2005-Aug-22 00:00:00.0000 TDB 
   3.085182638177474E-01  1.309294881200147E-01 -1.745950398886211E-02
  -1.649428604883585E-02  2.714212562269431E-02  3.730404783662241E-03
2453609.500000000 = A.D. 2005-Aug-27 00:00:00.0000 TDB 
   1.966033818530660E-01  2.477920589035015E-01  2.354732330470419E-03
  -2.776194939216776E-02  1.848152620795825E-02  4.056898831920097E-03
2453614.500000000 = A.D. 2005-Sep-01 00:00:00.0000 TDB 
   4.007965121278998E-02  3.063340080194160E-01  2.149811202979992E-02
  -3.358524394279185E-02  4.335120286677835E-03  3.435581307542712E-03
2453619.500000000 = A.D. 2005-Sep-06 00:00:00.0000 TDB 
  -1.254539163645940E-01  2.900686796059961E-01  3.535676160811239E-02
  -3.132131468538119E-02 -1.045894772603655E-02  2.019179249238905E-03
2453624.500000000 = A.D. 2005-Sep-11 00:00:00.0000 TDB 
  -2.629386368996233E-01  2.089910770752075E-01  4.134633735786761E-02
  -2.300016278789920E-02 -2.104906327680773E-02  3.903525159850354E-04
2453629.500000000 = A.D. 2005-Sep-16 00:00:00.0000 TDB 
  -3.519831342463086E-01  8.892933360536430E-02  3.970559706898768E-02
  -1.253778790791094E-02 -2.610895743637086E-02 -9.831710712861958E-04
2453634.500000000 = A.D. 2005-Sep-21 00:00:00.0000 TDB 
  -3.892308098660566E-01 -4.467962835587770E-02  3.220463525575726E-02
  -2.568822487294798E-03 -2.672419262160771E-02 -1.948296507507839E-03
2453639.500000000 = A.D. 2005-Sep-26 00:00:00.0000 TDB 
  -3.803075904850827E-01 -1.733977742499731E-01  2.086608986382888E-02
   5.844449759209416E-03 -2.437550970400474E-02 -2.528509779882355E-03
